{"type": "FeatureCollection", "features": [ {"type": "Feature", "properties": {"norad_id": 37834, "name": "INTELSAT 18 (IS-18)", "group": "intelsat", "lat": -0.03214987379350863, "lon": -98.64108283292855, "alt_km": 35779.08793680787, "timestamp": "2025-12-17T23:38:06.530544+00:00", "meta": {"OBJECT_NAME": "INTELSAT 18 (IS-18)", "OBJECT_ID": "2011-056A", "EPOCH": "2025-12-17T12:31:57.514944", "MEAN_MOTION": 1.00272076, "ECCENTRICITY": 0.00017172, "INCLINATION": 0.0137, "RA_OF_ASC_NODE": 312.3562, "ARG_OF_PERICENTER": 327.9404, "MEAN_ANOMALY": 174.0865, "EPHEMERIS_TYPE": 0, "CLASSIFICATION_TYPE": "U", "NORAD_CAT_ID": 37834, "ELEMENT_SET_NO": 999, "REV_AT_EPOCH": 5199, "BSTAR": 0, "MEAN_MOTION_DOT": 7.8e-07, "MEAN_MOTION_DDOT": 0}, "tle": {"line1": "1 37834U 11056A   25351.52219346  .00000078  00000+0  00000+0 0  9999", "line2": "2 37834   0.0137 312.3562 0001717 327.9404 174.0865  1.00272076 51995"}}, "geometry": {"type": "Point", "coordinates": [-98.64108283292855, -0.03214987379350863]}}, {"type": "Feature", "properties": {"norad_id": 38098, "name": "INTELSAT 22 (IS-22)", "group": "intelsat", "lat": 0.044991551911257706, "lon": 153.45035088393212, "alt_km": 35792.065204107916, "timestamp": "2025-12-17T23:38:06.530556+00:00", "meta": {"OBJECT_NAME": "INTELSAT 22 (IS-22)", "OBJECT_ID": "2012-011A", "EPOCH": "2025-12-17T10:14:41.205984", "MEAN_MOTION": 1.002706, "ECCENTRICITY": 0.00018947, "INCLINATION": 0.0426, "RA_OF_ASC_NODE": 54.7437, "ARG_OF_PERICENTER": 233.9345, "MEAN_ANOMALY": 23.3962, "EPHEMERIS_TYPE": 0, "CLASSIFICATION_TYPE": "U", "NORAD_CAT_ID": 38098, "ELEMENT_SET_NO": 999, "REV_AT_EPOCH": 536, "BSTAR": 0, "MEAN_MOTION_DOT": 0, "MEAN_MOTION_DDOT": 0}, "tle": {"line1": "1 38098U 12011A   25351.42686581  .00000000  00000+0  00000+0 0  9997", "line2": "2 38098   0.0426  54.7437 0001894 233.9345  23.3962  1.00270600  5368"}}, "geometry": {"type": "Point", "coordinates": [153.45035088393212, 0.044991551911257706]}}, {"type": "Feature", "properties": {"norad_id": 38356, "name": "INTELSAT 19 (IS-19)", "group": "intelsat", "lat": -0.03430591420804102, "lon": -112.63344266778908, "alt_km": 35774.16588823461, "timestamp": "2025-12-17T23:38:06.530568+00:00", "meta": {"OBJECT_NAME": "INTELSAT 19 (IS-19)", "OBJECT_ID": "2012-030A", "EPOCH": "2025-12-17T14:42:49.675680", "MEAN_MOTION": 1.00272113, "ECCENTRICITY": 0.00031802, "INCLINATION": 0.0086, "RA_OF_ASC_NODE": 331.7592, "ARG_OF_PERICENTER": 304.3575, "MEAN_ANOMALY": 197.0923, "EPHEMERIS_TYPE": 0, "CLASSIFICATION_TYPE": "U", "NORAD_CAT_ID": 38356, "ELEMENT_SET_NO": 999, "REV_AT_EPOCH": 4863, "BSTAR": 0, "MEAN_MOTION_DOT": -3.1e-07, "MEAN_MOTION_DDOT": 0}, "tle": {"line1": "1 38356U 12030A   25351.61307495 -.00000031  00000+0  00000+0 0  9995", "line2": "2 38356   0.0086 331.7592 0003180 304.3575 197.0923  1.00272113 48639"}}, "geometry": {"type": "Point", "coordinates": [-112.63344266778908, -0.03430591420804102]}}, {"type": "Feature", "properties": {"norad_id": 38740, "name": "INTELSAT 20 (IS-20)", "group": "intelsat", "lat": 0.0036756631215670256, "lon": 149.8718912205646, "alt_km": 35773.09334695349, "timestamp": "2025-12-17T23:38:06.530580+00:00", "meta": {"OBJECT_NAME": "INTELSAT 20 (IS-20)", "OBJECT_ID": "2012-043A", "EPOCH": "2025-12-17T10:13:41.302272", "MEAN_MOTION": 1.00279815, "ECCENTRICITY": 0.00028044, "INCLINATION": 0.0062, "RA_OF_ASC_NODE": 74.0732, "ARG_OF_PERICENTER": 100.0372, "MEAN_ANOMALY": 134.1145, "EPHEMERIS_TYPE": 0, "CLASSIFICATION_TYPE": "U", "NORAD_CAT_ID": 38740, "ELEMENT_SET_NO": 999, "REV_AT_EPOCH": 4892, "BSTAR": 0, "MEAN_MOTION_DOT": -1e-08, "MEAN_MOTION_DDOT": 0}, "tle": {"line1": "1 38740U 12043A   25351.42617248 -.00000001  00000+0  00000+0 0  9992", "line2": "2 38740   0.0062  74.0732 0002804 100.0372 134.1145  1.00279815 48927"}}, "geometry": {"type": "Point", "coordinates": [149.8718912205646, 0.0036756631215670256]}}, {"type": "Feature", "properties": {"norad_id": 38749, "name": "INTELSAT 21 (IS-21)", "group": "intelsat", "lat": 0.043272242726942585, "lon": 23.38614650580009, "alt_km": 35791.92424040111, "timestamp": "2025-12-17T23:38:06.530592+00:00", "meta": {"OBJECT_NAME": "INTELSAT 21 (IS-21)", "OBJECT_ID": "2012-045A", "EPOCH": "2025-12-17T13:03:01.628640", "MEAN_MOTION": 1.00269248, "ECCENTRICITY": 0.00018667, "INCLINATION": 0.0326, "RA_OF_ASC_NODE": 281.7984, "ARG_OF_PERICENTER": 331.46, "MEAN_ANOMALY": 330.9223, "EPHEMERIS_TYPE": 0, "CLASSIFICATION_TYPE": "U", "NORAD_CAT_ID": 38749, "ELEMENT_SET_NO": 999, "REV_AT_EPOCH": 4870, "BSTAR": 0, "MEAN_MOTION_DOT": -2.6e-06, "MEAN_MOTION_DDOT": 0}, "tle": {"line1": "1 38749U 12045A   25351.54376885 -.00000260  00000+0  00000+0 0  9992", "line2": "2 38749   0.0326 281.7984 0001866 331.4600 330.9223  1.00269248 48704"}}, "geometry": {"type": "Point", "coordinates": [23.38614650580009, 0.043272242726942585]}}, {"type": "Feature", "properties": {"norad_id": 38867, "name": "INTELSAT 23 (IS-23)", "group": "intelsat", "lat": -0.002343379009245081, "lon": 28.41512659531098, "alt_km": 35786.63860520976, "timestamp": "2025-12-17T23:38:06.530604+00:00", "meta": {"OBJECT_NAME": "INTELSAT 23 (IS-23)", "OBJECT_ID": "2012-057A", "EPOCH": "2025-12-17T09:38:59.623872", "MEAN_MOTION": 1.00273732, "ECCENTRICITY": 3.78e-05, "INCLINATION": 0.0295, "RA_OF_ASC_NODE": 83.0302, "ARG_OF_PERICENTER": 175.0842, "MEAN_ANOMALY": 279.9522, "EPHEMERIS_TYPE": 0, "CLASSIFICATION_TYPE": "U", "NORAD_CAT_ID": 38867, "ELEMENT_SET_NO": 999, "REV_AT_EPOCH": 4813, "BSTAR": 0, "MEAN_MOTION_DOT": -2.6e-06, "MEAN_MOTION_DDOT": 0}, "tle": {"line1": "1 38867U 12057A   25351.40207898 -.00000260  00000+0  00000+0 0  9998", "line2": "2 38867   0.0295  83.0302 0000378 175.0842 279.9522  1.00273732 48138"}}, "geometry": {"type": "Point", "coordinates": [28.41512659531098, -0.002343379009245081]}}, {"type": "Feature", "properties": {"norad_id": 39360, "name": "FM-6", "group": "intelsat", "lat": -0.012678778688804996, "lon": -34.77673327753014, "alt_km": 35796.92467205538, "timestamp": "2025-12-17T23:38:06.530616+00:00", "meta": {"OBJECT_NAME": "FM-6", "OBJECT_ID": "2013-058A", "EPOCH": "2025-12-17T14:05:26.235744", "MEAN_MOTION": 1.00269555, "ECCENTRICITY": 0.00028821, "INCLINATION": 0.0111, "RA_OF_ASC_NODE": 62.8493, "ARG_OF_PERICENTER": 114.4974, "MEAN_ANOMALY": 4.3142, "EPHEMERIS_TYPE": 0, "CLASSIFICATION_TYPE": "U", "NORAD_CAT_ID": 39360, "ELEMENT_SET_NO": 999, "REV_AT_EPOCH": 4425, "BSTAR": 0, "MEAN_MOTION_DOT": 8e-08, "MEAN_MOTION_DDOT": 0}, "tle": {"line1": "1 39360U 13058A   25351.58710921  .00000008  00000+0  00000+0 0  9993", "line2": "2 39360   0.0111  62.8493 0002882 114.4974   4.3142  1.00269555 44250"}}, "geometry": {"type": "Point", "coordinates": [-34.77673327753014, -0.012678778688804996]}}, {"type": "Feature", "properties": {"norad_id": 40271, "name": "INTELSAT 30 (IS-30)", "group": "intelsat", "lat": -0.012852600192196886, "lon": -13.702673849895692, "alt_km": 35787.2229813741, "timestamp": "2025-12-17T23:38:06.530627+00:00", "meta": {"OBJECT_NAME": "INTELSAT 30 (IS-30)", "OBJECT_ID": "2014-062A", "EPOCH": "2025-12-17T12:02:03.779232", "MEAN_MOTION": 1.00271133, "ECCENTRICITY": 0.00015891, "INCLINATION": 0.0153, "RA_OF_ASC_NODE": 23.9882, "ARG_OF_PERICENTER": 60.3263, "MEAN_ANOMALY": 87.5261, "EPHEMERIS_TYPE": 0, "CLASSIFICATION_TYPE": "U", "NORAD_CAT_ID": 40271, "ELEMENT_SET_NO": 999, "REV_AT_EPOCH": 497, "BSTAR": 0, "MEAN_MOTION_DOT": -1.26e-06, "MEAN_MOTION_DDOT": 0}, "tle": {"line1": "1 40271U 14062A   25351.50143263 -.00000126  00000+0  00000+0 0  9995", "line2": "2 40271   0.0153  23.9882 0001589  60.3263  87.5261  1.00271133  4977"}}, "geometry": {"type": "Point", "coordinates": [-13.702673849895692, -0.012852600192196886]}}, {"type": "Feature", "properties": {"norad_id": 40333, "name": "DIRECTV 14", "group": "intelsat", "lat": 0.001578708339814515, "lon": -17.841243345686447, "alt_km": 35786.7619340797, "timestamp": "2025-12-17T23:38:06.530639+00:00", "meta": {"OBJECT_NAME": "DIRECTV 14", "OBJECT_ID": "2014-078B", "EPOCH": "2025-12-17T12:42:03.828672", "MEAN_MOTION": 1.00275184, "ECCENTRICITY": 3.88e-05, "INCLINATION": 0.0186, "RA_OF_ASC_NODE": 337.9742, "ARG_OF_PERICENTER": 189.5014, "MEAN_ANOMALY": 10.2289, "EPHEMERIS_TYPE": 0, "CLASSIFICATION_TYPE": "U", "NORAD_CAT_ID": 40333, "ELEMENT_SET_NO": 999, "REV_AT_EPOCH": 4022, "BSTAR": 0, "MEAN_MOTION_DOT": -1.01e-06, "MEAN_MOTION_DDOT": 0}, "tle": {"line1": "1 40333U 14078B   25351.52921098 -.00000101  00000+0  00000+0 0  9996", "line2": "2 40333   0.0186 337.9742 0000388 189.5014  10.2289  1.00275184 40220"}}, "geometry": {"type": "Point", "coordinates": [-17.841243345686447, 0.001578708339814515]}}, {"type": "Feature", "properties": {"norad_id": 40663, "name": "DIRECTV 15", "group": "intelsat", "lat": -0.00832634904654448, "lon": -21.49929518729492, "alt_km": 35784.405274522505, "timestamp": "2025-12-17T23:38:06.530650+00:00", "meta": {"OBJECT_NAME": "DIRECTV 15", "OBJECT_ID": "2015-026A", "EPOCH": "2025-12-17T12:57:48.390624", "MEAN_MOTION": 1.00276862, "ECCENTRICITY": 9.79e-06, "INCLINATION": 0.0268, "RA_OF_ASC_NODE": 349.3796, "ARG_OF_PERICENTER": 298.882, "MEAN_ANOMALY": 249.7283, "EPHEMERIS_TYPE": 0, "CLASSIFICATION_TYPE": "U", "NORAD_CAT_ID": 40663, "ELEMENT_SET_NO": 999, "REV_AT_EPOCH": 3864, "BSTAR": 0, "MEAN_MOTION_DOT": 0, "MEAN_MOTION_DDOT": 0}, "tle": {"line1": "1 40663U 15026A   25351.54014341  .00000000  00000+0  00000+0 0  9999", "line2": "2 40663   0.0268 349.3796 0000097 298.8820 249.7283  1.00276862 38649"}}, "geometry": {"type": "Point", "coordinates": [-21.49929518729492, -0.00832634904654448]}}]}